{
    "links": {
        "self": "http://www.neowsapp.com/rest/v1/neo/3843478?api_key=iIulBulltgU6a56xZRHN4H3l9WmuAYTsLGpBGhQ2"
    },
    "id": "3843478",
    "neo_reference_id": "3843478",
    "name": "(2019 PK)",
    "designation": "2019 PK",
    "nasa_jpl_url": "http://ssd.jpl.nasa.gov/sbdb.cgi?sstr=3843478",
    "absolute_magnitude_h": 25.3,
    "estimated_diameter": {
        "kilometers": {
            "estimated_diameter_min": 0.0231502122,
            "estimated_diameter_max": 0.0517654482
        },
        "meters": {
            "estimated_diameter_min": 23.150212221,
            "estimated_diameter_max": 51.7654482198
        },
        "miles": {
            "estimated_diameter_min": 0.0143848705,
            "estimated_diameter_max": 0.0321655483
        },
        "feet": {
            "estimated_diameter_min": 75.9521422633,
            "estimated_diameter_max": 169.8341531374
        }
    },
    "is_potentially_hazardous_asteroid": false,
    "close_approach_data": [
        {
            "close_approach_date": "2019-08-18",
            "close_approach_date_full": "2019-Aug-18 05:14",
            "epoch_date_close_approach": 1566105240000,
            "relative_velocity": {
                "kilometers_per_second": "7.3673393565",
                "kilometers_per_hour": "26522.4216835615",
                "miles_per_hour": "16480.0014066552"
            },
            "miss_distance": {
                "astronomical": "0.0280978691",
                "lunar": "10.9300710799",
                "kilometers": "4203381.368898817",
                "miles": "2611860.0690729946"
            },
            "orbiting_body": "Earth"
        },
        {
            "close_approach_date": "2081-07-15",
            "close_approach_date_full": "2081-Jul-15 19:45",
            "epoch_date_close_approach": 3519834300000,
            "relative_velocity": {
                "kilometers_per_second": "17.8218299418",
                "kilometers_per_hour": "64158.5877905585",
                "miles_per_hour": "39865.6513968612"
            },
            "miss_distance": {
                "astronomical": "0.3698562999",
                "lunar": "143.8741006611",
                "kilometers": "55329714.671121213",
                "miles": "34380290.4613822194"
            },
            "orbiting_body": "Earth"
        },
        {
            "close_approach_date": "2186-10-24",
            "close_approach_date_full": "2186-Oct-24 03:41",
            "epoch_date_close_approach": 6841942860000,
            "relative_velocity": {
                "kilometers_per_second": "10.6303179058",
                "kilometers_per_hour": "38269.1444609084",
                "miles_per_hour": "23778.9581235017"
            },
            "miss_distance": {
                "astronomical": "0.1475037738",
                "lunar": "57.3789680082",
                "kilometers": "22066250.377441806",
                "miles": "13711332.1816206828"
            },
            "orbiting_body": "Earth"
        }
    ],
    "orbital_data": {
        "orbit_id": "6",
        "orbit_determination_date": "2020-05-21 11:40:03",
        "first_observation_date": "2019-08-05",
        "last_observation_date": "2019-08-27",
        "data_arc_in_days": 22,
        "observations_used": 48,
        "orbit_uncertainty": "8",
        "minimum_orbit_intersection": ".0152605",
        "jupiter_tisserand_invariant": "3.962",
        "epoch_osculation": "2458703.5",
        "eccentricity": ".4387957447778818",
        "semi_major_axis": "1.787566993290981",
        "inclination": "3.412833264882486",
        "ascending_node_longitude": "140.5247203899992",
        "orbital_period": "872.9551216839883",
        "perihelion_distance": "1.003190203129506",
        "perihelion_argument": "210.4873746292244",
        "aphelion_distance": "2.571943783452455",
        "perihelion_time": "2458735.629095297872",
        "mean_anomaly": "346.750207404796",
        "mean_motion": ".4123923338756936",
        "equinox": "J2000",
        "orbit_class": {
            "orbit_class_type": "APO",
            "orbit_class_description": "Near-Earth asteroid orbits which cross the Earth’s orbit similar to that of 1862 Apollo",
            "orbit_class_range": "a (semi-major axis) > 1.0 AU; q (perihelion) < 1.017 AU"
        }
    },
    "is_sentry_object": false
}